ASTRA 1D                
1 23331U 94070A   17309.02906102 -.00000267  00000-0  00000+0 0  9997
2 23331   7.7718  48.2655 0003642 175.9498 118.1926  1.00274498 84614
ASTRA 1F                
1 23842U 96021A   17308.89907147  .00000138  00000-0  00000-0 0  9993
2 23842   0.0389 352.7752 0004421 236.4951 183.0389  1.00270473 20797
AMC-1 (GE-1)            
1 24315U 96054A   17309.46804081  .00000057  00000-0  00000+0 0  9991
2 24315   1.8605  84.2944 0003123 151.2813 208.6846  1.00270759 77489
AMC-2 (GE-2)            
1 24713U 97002A   17309.33934800 -.00000211  00000-0  00000+0 0  9999
2 24713   4.5953  65.1836 0005252 165.7814 211.1462  1.00270308 26781
AMC-3 (GE-3)            
1 24936U 97050A   17309.20324022 -.00000261  00000-0  00000+0 0  9999
2 24936   0.6747  91.6106 0002879 126.4455 187.7661  1.00272441 73902
NSS-5                   
1 24957U 97053A   17308.90462691  .00000108  00000-0  00000-0 0  9996
2 24957   4.1068  68.5678 0003630 157.3854 194.5778  1.00268888 73623
ASTRA 1G                
1 25071U 97076A   17308.73799637  .00000107  00000-0  00000-0 0  9992
2 25071   2.6065  77.8197 0003540 150.2632 132.8761  1.00270532 73004
NSS-806                 
1 25239U 98014A   17308.62476552 -.00000279  00000-0  00000-0 0  9998
2 25239   0.0571   1.1566 0004808 226.0405 354.3148  1.00270698 15753
ASTRA 2A                
1 25462U 98050A   17309.30740341 -.00000361  00000-0  00000+0 0  9993
2 25462   0.0399 237.3330 0002805   1.5046  30.1183  1.00270269 70194
ASTRA 1H                
1 25785U 99033A   17309.04285388  .00000078  00000-0  00000+0 0  9993
2 25785   4.0922  68.7204 0002757  86.5646 282.9735  1.00029239 67240
AMC-4 (GE-4)            
1 25954U 99060A   17309.25057619  .00000086  00000-0  00000+0 0  9997
2 25954   0.0763  91.6209 0002977 145.4973 122.8917  1.00272328 65947
ASTRA 2B                
1 26494U 00054A   17308.68865418 -.00000153  00000-0  00000-0 0  9999
2 26494   2.4964  78.4751 0005324 159.5913  34.3941  1.00271476 15335
AMC-7 (GE-7)            
1 26495U 00054B   17309.25088092  .00000086  00000-0  00000+0 0  9992
2 26495   0.0544  83.5155 0002282 156.7247 119.7759  1.00272305 62719
NSS-11 (AAP-1)          
1 26554U 00059A   17309.56702682 -.00000347  00000-0  00000+0 0  9996
2 26554   0.0227  77.5228 0002609 175.5149 104.2295  1.00267702 62630
AMC-6 (GE-6)            
1 26580U 00067A   17309.29840972 -.00000218  00000-0  00000+0 0  9996
2 26580   0.0065 332.1606 0003396 271.8087 185.2015  1.00269843 62440
ASTRA 2D                
1 26638U 00081A   17308.90347139  .00000048  00000-0  00000+0 0  9990
2 26638   3.9195  69.3684 0001850 150.3159 209.5869  1.00272269 61845
AMC-8 (GE-8)            
1 26639U 00081B   17308.78243757  .00000103  00000-0  00000+0 0  9990
2 26639   0.0231 359.8281 0002389 231.3507 315.7279  1.00270751 61726
ASTRA 2C                
1 26853U 01025A   17308.96495639  .00000045  00000-0  00000-0 0  9991
2 26853   0.6941  91.1206 0003886 134.7615 226.2061  1.00271616 13510
ASTRA 3A                
1 27400U 02015B   17309.19526692 -.00000281  00000-0  00000+0 0  9992
2 27400   4.0800  68.0822 0002743 161.1402 198.7514  1.00271566 57177
NSS-7                   
1 27414U 02019A   17309.16004818 -.00000156  00000-0  00000+0 0  9990
2 27414   2.1842  82.2611 0002268 142.1839 217.7790  1.00272410 57016
NSS-6                   
1 27603U 02057A   17308.78689105 -.00000271  00000-0  00000+0 0  9995
2 27603   0.0472  90.8765 0003196 146.9812 184.6713  1.00272523 54548
AMC-9 (GE-12)           
1 27820U 03024A   17309.44955238  .00000010  00000-0  00000+0 0  9998
2 27820   0.2809  89.3161 0011281 241.0524  70.2907  0.99525157 52790
AMC-10 (GE-10)          
1 28154U 04003A   17308.78243757  .00000087  00000-0  00000+0 0  9993
2 28154   0.0169 306.3994 0001336 236.5394   7.9758  1.00270224 50387
AMC-11 (GE-11)          
1 28252U 04017A   17309.48313340  .00000067  00000-0  00000+0 0  9999
2 28252   0.0229 350.4077 0003258 256.6189 200.8392  1.00271121 49164
AMC-15                  
1 28446U 04041A   17309.21454571 -.00000091  00000-0  00000+0 0  9992
2 28446   0.0325  28.8613 0003100 222.0343 125.9674  1.00271437 47846
AMC-16                  
1 28472U 04048A   17308.83799130 -.00000207  00000-0  00000+0 0  9997
2 28472   0.0228   1.3748 0003145 233.0156  26.5882  1.00272169 47261
NSS-10 (AMC-12)         
1 28526U 05003A   17309.15535612 -.00000252  00000-0  00000+0 0  9998
2 28526   0.0246 302.3610 0003263 289.4699 191.2601  1.00271888 46772
ASTRA 1KR               
1 29055U 06012A   17309.52684956  .00000117  00000-0  00000+0 0  9993
2 29055   0.0550 275.1411 0005526 314.5150  24.1919  1.00268978 42206
AMC-18                  
1 29644U 06054B   17309.34921302 -.00000092  00000-0  00000+0 0  9995
2 29644   0.0562  84.9885 0003215 157.2096 183.3796  1.00271607 40019
ASTRA 1L                
1 31306U 07016A   17309.52684956  .00000117  00000-0  00000+0 0  9990
2 31306   0.0702 301.6326 0004521 316.4527 355.7594  1.00268980 38491
ASTRA 4A (SIRIUS 4)     
1 32299U 07057A   17308.80868644  .00000032  00000-0  00000-0 0  9992
2 32299   0.0214 303.9146 0003183 282.7337 113.5484  1.00271666 20150
AMC-21                  
1 33275U 08038B   17309.49117718  .00000034  00000-0  00000+0 0  9993
2 33275   0.0650  80.2816 0002711 159.7283 216.8482  1.00270811 33922
ASTRA 1M                
1 33436U 08057A   17309.36712659  .00000118  00000-0  00000+0 0  9997
2 33436   0.0539  98.2126 0004272  91.4716   6.4904  1.00272697 32933
CIEL-2                  
1 33453U 08063A   17308.72688215  .00000057  00000-0  00000-0 0  9995
2 33453   0.0098 313.2608 0003410 277.1928 306.5616  1.00270305 32611
NSS-9                   
1 33749U 09008A   17308.66514362  .00000071  00000-0  00000+0 0  9992
2 33749   0.0263   2.9643 0002409 217.2361 246.4485  1.00270844 32015
SES-7 (PROTOSTAR 2)     
1 34941U 09027A   17308.75601632 -.00000346  00000-0  00000+0 0  9991
2 34941   0.0224  66.6567 0002686 190.1240 167.8246  1.00268663 31073
NSS-12                  
1 36032U 09058A   17308.71901777  .00000070  00000-0  00000-0 0  9991
2 36032   0.0572  80.6975 0002580 139.0356 140.2874  1.00270235 29385
SES-1                   
1 36516U 10016A   17309.53425514 -.00000117  00000-0  00000+0 0  9997
2 36516   0.0166 341.3113 0002315 246.8737 268.1278  1.00271863 27595
ASTRA 3B                
1 36581U 10021A   17309.04285388  .00000136  00000-0  00000+0 0  9994
2 36581   0.0533 308.7718 0002957 277.7736 216.8633  1.00272686 27103
SES-3                   
1 37748U 11035A   17308.55664517 -.00000103  00000-0  00000-0 0  9992
2 37748   0.0579  80.8909 0002466 136.2234 284.3030  1.00272401 23063
ASTRA 1N                
1 37775U 11041A   17309.52684956  .00000118  00000-0  00000+0 0  9990
2 37775   0.0590  46.4342 0000503 193.7624  13.6686  1.00273312 22854
SES-2                   
1 37809U 11049A   17309.43726499 -.00000198  00000-0  00000+0 0  9994
2 37809   0.0459  83.9196 0002309 143.0744 248.3059  1.00270609 22471
QUETZSAT 1              
1 37826U 11054A   17309.09493919 -.00000243  00000-0  00000+0 0  9990
2 37826   0.0501  73.3578 0002623 143.6293 144.7365  1.00270710 22550
SES-4                   
1 38087U 12007A   17309.14563201 -.00000170  00000-0  00000+0 0  9996
2 38087   0.0219 333.5810 0002337 256.6345 204.8047  1.00272005 20946
SES-5                   
1 38652U 12036A   17308.80868644  .00000033  00000-0  00000-0 0  9995
2 38652   0.0481 269.5182 0002059 324.1999 106.6565  1.00271987 12956
ASTRA 2F                
1 38778U 12051A   17308.79871617  .00000149  00000-0  00000-0 0  9991
2 38778   0.0501 226.6792 0004781   2.6827 130.6361  1.00272426  9610
SES-6                   
1 39172U 13026A   17307.99180972 -.00000261  00000-0  00000+0 0  9996
2 39172   0.0263 333.5550 0002479 252.7260 133.7388  1.00269802 16171
O3B FM5                 
1 39188U 13031A   17308.22693177 -.00000016  00000-0  00000-0 0  9991
2 39188   0.0576   4.8991 0008408 213.2258 141.8237  5.00115910 79681
O3B FM4                 
1 39189U 13031B   17309.11849966 -.00000017  00000-0  00000+0 0  9990
2 39189   0.0298 359.8524 0001805  56.4396 303.7330  5.00115771 79725
O3B FM2                 
1 39190U 13031C   17308.89362457 -.00000016  00000-0  00000-0 0  9991
2 39190   0.0276 350.3203 0002493  62.4294 307.2810  5.00115694 79716
O3B PFM                 
1 39191U 13031D   17308.51711790 -.00000016  00000-0  00000-0 0  9999
2 39191   0.0491   5.0740 0002653 177.5516 177.3810  5.00115923 79697
ASTRA 2E                
1 39285U 13056A   17308.79798201  .00000149  00000-0  00000+0 0  9997
2 39285   0.0669 332.4026 0002318 241.4045 146.2175  1.00269375 15043
SES-8                   
1 39460U 13071A   17308.61377309 -.00000270  00000-0  00000+0 0  9998
2 39460   0.0140 268.8222 0001577 292.1433 159.0678  1.00270488 14329
ASTRA 5B                
1 39617U 14011B   17309.54285462  .00000152  00000-0  00000+0 0  9996
2 39617   0.0651 302.2065 0004147 278.1346  51.6041  1.00272777 13324
O3B FM3                 
1 40079U 14038A   17308.42901831 -.00000016  00000-0  00000-0 0  9991
2 40079   0.0389   0.1987 0004938 220.0945 139.6782  5.00115614 55798
O3B FM7                 
1 40080U 14038B   17308.58362888 -.00000016  00000-0  00000-0 0  9993
2 40080   0.0369   1.7939 0003216 221.3857 136.8032  5.00115394 60570
O3B FM6                 
1 40081U 14038C   17308.40677303 -.00000016  00000-0  00000-0 0  9996
2 40081   0.0380   1.1129 0003702 221.4324 137.4340  5.00114686 60559
O3B FM8                 
1 40082U 14038D   17308.85103671 -.00000016  00000-0  00000-0 0  9998
2 40082   0.0347   1.6002 0002831 196.7254 161.6721  5.00115934 60689
O3B FM10                
1 40348U 14083A   17308.07356102 -.00000016  00000-0  00000-0 0  9996
2 40348   0.0451   1.6566 0002783 244.5618 113.7605  5.00115838 52613
O3B FM11                
1 40349U 14083B   17308.89498977 -.00000016  00000-0  00000-0 0  9994
2 40349   0.0468   3.5715 0002315 236.8121 119.6013  5.00115632 52657
O3B FM12                
1 40350U 14083C   17308.76211935 -.00000016  00000-0  00000-0 0  9999
2 40350   0.0457   3.7744 0002378 222.3182 133.8957  5.00115487 52650
O3B FM9                 
1 40351U 14083D   17307.34037308 -.00000016  00000-0  00000-0 0  9993
2 40351   0.0477   2.6186 0002708 233.8539 123.5098  5.00115472 52590
ASTRA 2G                
1 40364U 14089A   17308.79882591  .00000149  00000-0  00000-0 0  9991
2 40364   0.0516  52.7948 0000730  36.8143 270.4387  1.00269690 10411
SES-9                   
1 41380U 16013A   17308.57693604 -.00000346  00000-0  00000-0 0  9990
2 41380   0.0193 298.5145 0001141 270.1524 151.3666  1.00271314  5948
SES-10                  
1 42432U 17017A   17309.06220635 -.00000274  00000-0  00000+0 0  9998
2 42432   0.0156 332.9582 0003027 255.5932 131.4616  1.00271647  2231
SES-15                  
1 42709U 17026A   17304.71755671 -.00000189  00000-0  00000-0 0  9991
2 42709   0.4133 195.5248 0767178 236.6079 296.1111  1.05591272  2597
